{
  "type": "FeatureCollection",
  "features": [
    {
      "type": "Feature",
      "properties": {
        "norad_id": 32143,
        "name": "FENGYUN 1C DEB",
        "group": "fengyun-1c-debris",
        "lat": 32.218201972368945,
        "lon": -35.05234271786362,
        "alt_km": 787.5361472239802,
        "timestamp": "2025-12-19T16:54:44.547183+00:00",
        "meta_object_name": "FENGYUN 1C DEB",
        "meta_object_id": "1999-025CSM",
        "meta_epoch": "2025-12-17T03:47:36.858336",
        "meta_mean_motion": 14.17974045,
        "meta_eccentricity": 0.01045676,
        "meta_inclination": 98.5967,
        "meta_ra_of_asc_node": 327.9519,
        "meta_arg_of_pericenter": 96.0348,
        "meta_mean_anomaly": 265.2755,
        "meta_ephemeris_type": 0,
        "meta_classification_type": "U",
        "meta_norad_cat_id": 32143,
        "meta_element_set_no": 999,
        "meta_rev_at_epoch": 95996,
        "meta_bstar": 0.000152935,
        "meta_mean_motion_dot": 2.89e-06,
        "meta_mean_motion_ddot": 0,
        "tle_line1": "1 32143U 99025CSM 25351.15806549  .00000289  00000+0  15294-3 0  9994",
        "tle_line2": "2 32143  98.5967 327.9519 0104567  96.0348 265.2755 14.17974045959960"
      },
      "geometry": {
        "type": "Point",
        "coordinates": [
          -35.05234271786362,
          32.218201972368945
        ]
      }
    },
    {
      "type": "Feature",
      "properties": {
        "norad_id": 32150,
        "name": "FENGYUN 1C DEB",
        "group": "fengyun-1c-debris",
        "lat": -35.80359800536399,
        "lon": -169.39351386106605,
        "alt_km": 816.6322249030209,
        "timestamp": "2025-12-19T16:54:44.547193+00:00",
        "meta_object_name": "FENGYUN 1C DEB",
        "meta_object_id": "1999-025CSU",
        "meta_epoch": "2025-12-17T19:32:44.216160",
        "meta_mean_motion": 14.60679601,
        "meta_eccentricity": 0.01717549,
        "meta_inclination": 99.1924,
        "meta_ra_of_asc_node": 15.2172,
        "meta_arg_of_pericenter": 52.3233,
        "meta_mean_anomaly": 309.3402,
        "meta_ephemeris_type": 0,
        "meta_classification_type": "U",
        "meta_norad_cat_id": 32150,
        "meta_element_set_no": 999,
        "meta_rev_at_epoch": 97780,
        "meta_bstar": 0.00013273529,
        "meta_mean_motion_dot": 7.28e-06,
        "meta_mean_motion_ddot": 0,
        "tle_line1": "1 32150U 99025CSU 25351.81440065  .00000728  00000+0  13274-3 0  9996",
        "tle_line2": "2 32150  99.1924  15.2172 0171754  52.3233 309.3402 14.60679601977800"
      },
      "geometry": {
        "type": "Point",
        "coordinates": [
          -169.39351386106605,
          -35.80359800536399
        ]
      }
    },
    {
      "type": "Feature",
      "properties": {
        "norad_id": 32152,
        "name": "FENGYUN 1C DEB",
        "group": "fengyun-1c-debris",
        "lat": -50.96575244945936,
        "lon": 166.16579629435338,
        "alt_km": 734.3112795607776,
        "timestamp": "2025-12-19T16:54:44.547204+00:00",
        "meta_object_name": "FENGYUN 1C DEB",
        "meta_object_id": "1999-025CSW",
        "meta_epoch": "2025-12-17T04:09:42.037344",
        "meta_mean_motion": 14.5680707,
        "meta_eccentricity": 0.00551751,
        "meta_inclination": 98.7605,
        "meta_ra_of_asc_node": 152.5422,
        "meta_arg_of_pericenter": 187.8049,
        "meta_mean_anomaly": 172.2295,
        "meta_ephemeris_type": 0,
        "meta_classification_type": "U",
        "meta_norad_cat_id": 32152,
        "meta_element_set_no": 999,
        "meta_rev_at_epoch": 62677,
        "meta_bstar": 0.0015230894,
        "meta_mean_motion_dot": 6.914e-05,
        "meta_mean_motion_ddot": 0,
        "tle_line1": "1 32152U 99025CSW 25351.17340321  .00006914  00000+0  15231-2 0  9998",
        "tle_line2": "2 32152  98.7605 152.5422 0055175 187.8049 172.2295 14.56807070626775"
      },
      "geometry": {
        "type": "Point",
        "coordinates": [
          166.16579629435338,
          -50.96575244945936
        ]
      }
    },
    {
      "type": "Feature",
      "properties": {
        "norad_id": 32153,
        "name": "FENGYUN 1C DEB",
        "group": "fengyun-1c-debris",
        "lat": 71.5983194905673,
        "lon": 169.26856925756252,
        "alt_km": 808.3112701023265,
        "timestamp": "2025-12-19T16:54:44.547213+00:00",
        "meta_object_name": "FENGYUN 1C DEB",
        "meta_object_id": "1999-025CSX",
        "meta_epoch": "2025-12-18T07:24:29.746368",
        "meta_mean_motion": 14.48736583,
        "meta_eccentricity": 0.02073761,
        "meta_inclination": 98.7685,
        "meta_ra_of_asc_node": 195.4597,
        "meta_arg_of_pericenter": 204.3967,
        "meta_mean_anomaly": 154.7301,
        "meta_ephemeris_type": 0,
        "meta_classification_type": "U",
        "meta_norad_cat_id": 32153,
        "meta_element_set_no": 999,
        "meta_rev_at_epoch": 97304,
        "meta_bstar": 0.00026097678,
        "meta_mean_motion_dot": 1.233e-05,
        "meta_mean_motion_ddot": 0,
        "tle_line1": "1 32153U 99025CSX 25352.30867762  .00001233  00000+0  26098-3 0  9991",
        "tle_line2": "2 32153  98.7685 195.4597 0207376 204.3967 154.7301 14.48736583973048"
      },
      "geometry": {
        "type": "Point",
        "coordinates": [
          169.26856925756252,
          71.5983194905673
        ]
      }
    },
    {
      "type": "Feature",
      "properties": {
        "norad_id": 32155,
        "name": "FENGYUN 1C DEB",
        "group": "fengyun-1c-debris",
        "lat": 22.07475028079456,
        "lon": -80.114083929604,
        "alt_km": 828.7130457942567,
        "timestamp": "2025-12-19T16:54:44.547223+00:00",
        "meta_object_name": "FENGYUN 1C DEB",
        "meta_object_id": "1999-025CSZ",
        "meta_epoch": "2025-12-14T12:47:50.436096",
        "meta_mean_motion": 14.32956999,
        "meta_eccentricity": 0.00690143,
        "meta_inclination": 98.952,
        "meta_ra_of_asc_node": 278.2092,
        "meta_arg_of_pericenter": 234.5934,
        "meta_mean_anomaly": 124.879,
        "meta_ephemeris_type": 0,
        "meta_classification_type": "U",
        "meta_norad_cat_id": 32155,
        "meta_element_set_no": 999,
        "meta_rev_at_epoch": 70248,
        "meta_bstar": 0.00052873215,
        "meta_mean_motion_dot": 1.437e-05,
        "meta_mean_motion_ddot": 0,
        "tle_line1": "1 32155U 99025CSZ 25348.53322264  .00001437  00000+0  52873-3 0  9992",
        "tle_line2": "2 32155  98.9520 278.2092 0069014 234.5934 124.8790 14.32956999702480"
      },
      "geometry": {
        "type": "Point",
        "coordinates": [
          -80.114083929604,
          22.07475028079456
        ]
      }
    },
    {
      "type": "Feature",
      "properties": {
        "norad_id": 32156,
        "name": "FENGYUN 1C DEB",
        "group": "fengyun-1c-debris",
        "lat": 4.218968515659525,
        "lon": 163.11961489457195,
        "alt_km": 738.0312646104403,
        "timestamp": "2025-12-19T16:54:44.547234+00:00",
        "meta_object_name": "FENGYUN 1C DEB",
        "meta_object_id": "1999-025CTA",
        "meta_epoch": "2025-12-16T05:02:42.776448",
        "meta_mean_motion": 14.3195706,
        "meta_eccentricity": 0.00822162,
        "meta_inclination": 99.3543,
        "meta_ra_of_asc_node": 160.0519,
        "meta_arg_of_pericenter": 47.5484,
        "meta_mean_anomaly": 313.261,
        "meta_ephemeris_type": 0,
        "meta_classification_type": "U",
        "meta_norad_cat_id": 32156,
        "meta_element_set_no": 999,
        "meta_rev_at_epoch": 64870,
        "meta_bstar": 0.00028213677,
        "meta_mean_motion_dot": 7.35e-06,
        "meta_mean_motion_ddot": 0,
        "tle_line1": "1 32156U 99025CTA 25350.21021732  .00000735  00000+0  28214-3 0  9999",
        "tle_line2": "2 32156  99.3543 160.0519 0082216  47.5484 313.2610 14.31957060648702"
      },
      "geometry": {
        "type": "Point",
        "coordinates": [
          163.11961489457195,
          4.218968515659525
        ]
      }
    },
    {
      "type": "Feature",
      "properties": {
        "norad_id": 32160,
        "name": "FENGYUN 1C DEB",
        "group": "fengyun-1c-debris",
        "lat": -48.271774687272824,
        "lon": 161.19955295716102,
        "alt_km": 721.240354987186,
        "timestamp": "2025-12-19T16:54:44.547244+00:00",
        "meta_object_name": "FENGYUN 1C DEB",
        "meta_object_id": "1999-025CTE",
        "meta_epoch": "2025-12-18T04:23:15.615168",
        "meta_mean_motion": 14.37582475,
        "meta_eccentricity": 0.00818172,
        "meta_inclination": 98.8815,
        "meta_ra_of_asc_node": 149.5303,
        "meta_arg_of_pericenter": 342.8185,
        "meta_mean_anomaly": 17.0234,
        "meta_ephemeris_type": 0,
        "meta_classification_type": "U",
        "meta_norad_cat_id": 32160,
        "meta_element_set_no": 999,
        "meta_rev_at_epoch": 95965,
        "meta_bstar": 0.00035922842,
        "meta_mean_motion_dot": 1.071e-05,
        "meta_mean_motion_ddot": 0,
        "tle_line1": "1 32160U 99025CTE 25352.18281962  .00001071  00000+0  35923-3 0  9994",
        "tle_line2": "2 32160  98.8815 149.5303 0081817 342.8185  17.0234 14.37582475959651"
      },
      "geometry": {
        "type": "Point",
        "coordinates": [
          161.19955295716102,
          -48.271774687272824
        ]
      }
    }
  ]
}